{
  "type": "FeatureCollection",
  "features": [
    {
      "type": "Feature",
      "properties": {
        "norad_id": 67145,
        "name": "KUIPER-00204",
        "group": "last-30-days",
        "lat": -50.76270741379277,
        "lon": -16.89145859144843,
        "alt_km": 462.1453181417264,
        "timestamp": "2025-12-26T19:22:37.609724+00:00",
        "meta_object_name": "KUIPER-00204",
        "meta_object_id": "2025-301N",
        "meta_epoch": "2025-12-26T15:02:30.144192",
        "meta_mean_motion": 15.3657137,
        "meta_eccentricity": 0.0002035,
        "meta_inclination": 51.8744,
        "meta_ra_of_asc_node": 58.0703,
        "meta_arg_of_pericenter": 77.8958,
        "meta_mean_anomaly": 282.2256,
        "meta_ephemeris_type": 0,
        "meta_classification_type": "U",
        "meta_norad_cat_id": 67145,
        "meta_element_set_no": 999,
        "meta_rev_at_epoch": 261,
        "meta_bstar": 0.00079609852,
        "meta_mean_motion_dot": 0.00028584,
        "meta_mean_motion_ddot": 0,
        "tle_line1": "1 67145U 25301N   25360.62673778  .00028584  00000+0  79610-3 0  9998",
        "tle_line2": "2 67145  51.8744  58.0703 0002035  77.8958 282.2256 15.36571370  2615"
      },
      "geometry": {
        "type": "Point",
        "coordinates": [
          -16.89145859144843,
          -50.76270741379277
        ]
      }
    },
    {
      "type": "Feature",
      "properties": {
        "norad_id": 67146,
        "name": "KUIPER-00210",
        "group": "last-30-days",
        "lat": -6.838676363105943,
        "lon": -117.19933211412224,
        "alt_km": 459.0469026460969,
        "timestamp": "2025-12-26T19:22:37.609734+00:00",
        "meta_object_name": "KUIPER-00210",
        "meta_object_id": "2025-301P",
        "meta_epoch": "2025-12-26T15:25:56.591904",
        "meta_mean_motion": 15.34199961,
        "meta_eccentricity": 0.00105946,
        "meta_inclination": 51.8601,
        "meta_ra_of_asc_node": 58.1848,
        "meta_arg_of_pericenter": 151.5196,
        "meta_mean_anomaly": 208.637,
        "meta_ephemeris_type": 0,
        "meta_classification_type": "U",
        "meta_norad_cat_id": 67146,
        "meta_element_set_no": 999,
        "meta_rev_at_epoch": 267,
        "meta_bstar": 0.00088209815,
        "meta_mean_motion_dot": 0.00029428,
        "meta_mean_motion_ddot": 0,
        "tle_line1": "1 67146U 25301P   25360.64301611  .00029428  00000+0  88210-3 0  9999",
        "tle_line2": "2 67146  51.8601  58.1848 0010594 151.5196 208.6370 15.34199961  2677"
      },
      "geometry": {
        "type": "Point",
        "coordinates": [
          -117.19933211412224,
          -6.838676363105943
        ]
      }
    },
    {
      "type": "Feature",
      "properties": {
        "norad_id": 67147,
        "name": "KUIPER-00221",
        "group": "last-30-days",
        "lat": -47.07759220225464,
        "lon": -65.10257974837157,
        "alt_km": 465.4845797519538,
        "timestamp": "2025-12-26T19:22:37.609744+00:00",
        "meta_object_name": "KUIPER-00221",
        "meta_object_id": "2025-301Q",
        "meta_epoch": "2025-12-26T13:36:51.784992",
        "meta_mean_motion": 15.357619,
        "meta_eccentricity": 0.00050184,
        "meta_inclination": 51.8724,
        "meta_ra_of_asc_node": 58.4309,
        "meta_arg_of_pericenter": 114.1511,
        "meta_mean_anomaly": 246,
        "meta_ephemeris_type": 0,
        "meta_classification_type": "U",
        "meta_norad_cat_id": 67147,
        "meta_element_set_no": 999,
        "meta_rev_at_epoch": 249,
        "meta_bstar": 0.00099577279,
        "meta_mean_motion_dot": 0.00034963,
        "meta_mean_motion_ddot": 0,
        "tle_line1": "1 67147U 25301Q   25360.56726603  .00034963  00000+0  99577-3 0  9991",
        "tle_line2": "2 67147  51.8724  58.4309 0005018 114.1511 246.0000 15.35761900  2495"
      },
      "geometry": {
        "type": "Point",
        "coordinates": [
          -65.10257974837157,
          -47.07759220225464
        ]
      }
    },
    {
      "type": "Feature",
      "properties": {
        "norad_id": 67148,
        "name": "KUIPER-00232",
        "group": "last-30-days",
        "lat": -48.93324567806046,
        "lon": -7.146596907276944,
        "alt_km": 460.9921476604686,
        "timestamp": "2025-12-26T19:22:37.609754+00:00",
        "meta_object_name": "KUIPER-00232",
        "meta_object_id": "2025-301R",
        "meta_epoch": "2025-12-26T13:27:10.377792",
        "meta_mean_motion": 15.36722826,
        "meta_eccentricity": 0.0001647,
        "meta_inclination": 51.8746,
        "meta_ra_of_asc_node": 58.3815,
        "meta_arg_of_pericenter": 50.5571,
        "meta_mean_anomaly": 309.5561,
        "meta_ephemeris_type": 0,
        "meta_classification_type": "U",
        "meta_norad_cat_id": 67148,
        "meta_element_set_no": 999,
        "meta_rev_at_epoch": 249,
        "meta_bstar": 0.0005919398,
        "meta_mean_motion_dot": 0.00021238,
        "meta_mean_motion_ddot": 0,
        "tle_line1": "1 67148U 25301R   25360.56053678  .00021238  00000+0  59194-3 0  9999",
        "tle_line2": "2 67148  51.8746  58.3815 0001647  50.5571 309.5561 15.36722826  2496"
      },
      "geometry": {
        "type": "Point",
        "coordinates": [
          -7.146596907276944,
          -48.93324567806046
        ]
      }
    },
    {
      "type": "Feature",
      "properties": {
        "norad_id": 67149,
        "name": "KUIPER-00241",
        "group": "last-30-days",
        "lat": -51.833529614421124,
        "lon": -35.016807768500655,
        "alt_km": 463.6591358851465,
        "timestamp": "2025-12-26T19:22:37.609764+00:00",
        "meta_object_name": "KUIPER-00241",
        "meta_object_id": "2025-301S",
        "meta_epoch": "2025-12-26T13:31:44.941440",
        "meta_mean_motion": 15.3627316,
        "meta_eccentricity": 0.00028198,
        "meta_inclination": 51.8745,
        "meta_ra_of_asc_node": 58.4011,
        "meta_arg_of_pericenter": 98.3919,
        "meta_mean_anomaly": 261.7387,
        "meta_ephemeris_type": 0,
        "meta_classification_type": "U",
        "meta_norad_cat_id": 67149,
        "meta_element_set_no": 999,
        "meta_rev_at_epoch": 282,
        "meta_bstar": 0.00058232928,
        "meta_mean_motion_dot": 0.00020582,
        "meta_mean_motion_ddot": 0,
        "tle_line1": "1 67149U 25301S   25360.56371460  .00020582  00000+0  58233-3 0  9996",
        "tle_line2": "2 67149  51.8745  58.4011 0002819  98.3919 261.7387 15.36273160  2827"
      },
      "geometry": {
        "type": "Point",
        "coordinates": [
          -35.016807768500655,
          -51.833529614421124
        ]
      }
    },
    {
      "type": "Feature",
      "properties": {
        "norad_id": 67150,
        "name": "KUIPER-00245",
        "group": "last-30-days",
        "lat": -45.515806991120655,
        "lon": -69.62286880441769,
        "alt_km": 465.15700599749107,
        "timestamp": "2025-12-26T19:22:37.609777+00:00",
        "meta_object_name": "KUIPER-00245",
        "meta_object_id": "2025-301T",
        "meta_epoch": "2025-12-26T13:37:45.162912",
        "meta_mean_motion": 15.35664172,
        "meta_eccentricity": 0.00050166,
        "meta_inclination": 51.8731,
        "meta_ra_of_asc_node": 58.4328,
        "meta_arg_of_pericenter": 122.7177,
        "meta_mean_anomaly": 237.4293,
        "meta_ephemeris_type": 0,
        "meta_classification_type": "U",
        "meta_norad_cat_id": 67150,
        "meta_element_set_no": 999,
        "meta_rev_at_epoch": 249,
        "meta_bstar": 0.00084747603,
        "meta_mean_motion_dot": 0.00029583,
        "meta_mean_motion_ddot": 0,
        "tle_line1": "1 67150U 25301T   25360.56788383  .00029583  00000+0  84748-3 0  9994",
        "tle_line2": "2 67150  51.8731  58.4328 0005016 122.7177 237.4293 15.35664172  2490"
      },
      "geometry": {
        "type": "Point",
        "coordinates": [
          -69.62286880441769,
          -45.515806991120655
        ]
      }
    },
    {
      "type": "Feature",
      "properties": {
        "norad_id": 67151,
        "name": "KUIPER-00246",
        "group": "last-30-days",
        "lat": -50.11874524439098,
        "lon": -52.70906932364009,
        "alt_km": 464.83805135934927,
        "timestamp": "2025-12-26T19:22:37.609787+00:00",
        "meta_object_name": "KUIPER-00246",
        "meta_object_id": "2025-301U",
        "meta_epoch": "2025-12-26T13:34:36.943104",
        "meta_mean_motion": 15.35933694,
        "meta_eccentricity": 0.00039602,
        "meta_inclination": 51.8742,
        "meta_ra_of_asc_node": 58.4174,
        "meta_arg_of_pericenter": 114.6561,
        "meta_mean_anomaly": 245.4838,
        "meta_ephemeris_type": 0,
        "meta_classification_type": "U",
        "meta_norad_cat_id": 67151,
        "meta_element_set_no": 999,
        "meta_rev_at_epoch": 251,
        "meta_bstar": 0.00087401428,
        "meta_mean_motion_dot": 0.0003079,
        "meta_mean_motion_ddot": 0,
        "tle_line1": "1 67151U 25301U   25360.56570536  .00030790  00000+0  87401-3 0  9995",
        "tle_line2": "2 67151  51.8742  58.4174 0003960 114.6561 245.4838 15.35933694  2510"
      },
      "geometry": {
        "type": "Point",
        "coordinates": [
          -52.70906932364009,
          -50.11874524439098
        ]
      }
    }
  ]
}